SL-14 R/B               
1 16792U 86046B   26081.94151370  .00000456  00000+0  49635-4 0  9991
2 16792  82.4794  67.6565 0023023 180.2982 179.8225 14.85602491128371
SL-14 R/B               
1 16882U 86055B   26081.82286064  .00000412  00000+0  44739-4 0  9999
2 16882  82.5179 114.3277 0017403 290.4414 242.9202 14.85653712121314
AJISAI (EGS)            
1 16908U 86061A   26081.96000207 -.00000111  00000+0 -95127-4 0  9998
2 16908  50.0098  52.5397 0011312 321.2089  80.6249 12.44515668469653
SL-14 R/B               
1 17567U 87024B   26081.49877031  .00000447  00000+0  48091-4 0  9993
2 17567  82.5247  80.7206 0017263 214.2467 145.7638 14.86143639 90035
COSMOS 1833             
1 17589U 87027A   26081.95637968 -.00000267  00000+0 -11706-3 0  9998
2 17589  70.9186 298.1353 0023574 195.2777 164.7635 14.13050216 12191
SL-16 R/B               
1 17590U 87027B   26081.82099000 -.00000203  00000+0 -76722-4 0  9995
2 17590  70.9994 248.8213 0002961 111.5471 248.5969 14.17166056 17208
SL-14 R/B               
1 17912U 87038B   26081.56769064  .00000449  00000+0  49146-4 0  9990
2 17912  82.4981 284.6734 0020573 119.8947 240.4316 14.85380208 81147
COSMOS 1844             
1 17973U 87041A   26081.83602667  .00000216  00000+0  13701-3 0  9995
2 17973  70.9011   6.4471 0030676 358.7576   1.3464 14.14552573  5440
SL-14 R/B               
1 18153U 87055B   26081.94640948  .00000454  00000+0  49519-4 0  9998
2 18153  82.5018 336.5400 0019959 333.8312  26.1893 14.85642673 71903
COSMOS 1867             
1 18187U 87060A   26081.92454081 -.00000031  00000+0  25965-4 0  9991
2 18187  65.0091 269.6398 0014690 279.4493  80.4931 14.31504963 21834
SL-14 R/B               
1 18749U 88001B   26081.87531862  .00000524  00000+0  57760-4 0  9992
2 18749  82.5163 182.9623 0017807 190.1058 169.9803 14.85542187 43989
COSMOS 1933             
1 18958U 88020A   26081.84151601  .00005812  00000+0  28357-3 0  9995
2 18958  82.5117 237.8956 0004952 141.1355 219.0236 15.18102185 52223
