CCSDS_OMM_VERS = 2.0
CREATION_DATE  = 
ORIGINATOR     = 

OBJECT_NAME    = SL-14 R/B
OBJECT_ID      = 1986-046B
CENTER_NAME    = EARTH
REF_FRAME      = TEME
TIME_SYSTEM    = UTC
MEAN_ELEMENT_THEORY = SGP/SGP4

EPOCH          = 2026-03-22T22:35:46.783680
MEAN_MOTION    = 14.85602491
ECCENTRICITY   = .00230234
INCLINATION    = 82.4794
RA_OF_ASC_NODE = 67.6565
ARG_OF_PERICENTER = 180.2982
MEAN_ANOMALY   = 179.8225

EPHEMERIS_TYPE = 0
CLASSIFICATION_TYPE = U
NORAD_CAT_ID   = 16792
ELEMENT_SET_NO = 999
REV_AT_EPOCH   = 12837
BSTAR          = .49634796E-4
MEAN_MOTION_DOT = .456E-5
MEAN_MOTION_DDOT = 0

CCSDS_OMM_VERS = 2.0
CREATION_DATE  = 
ORIGINATOR     = 

OBJECT_NAME    = SL-14 R/B
OBJECT_ID      = 1986-055B
CENTER_NAME    = EARTH
REF_FRAME      = TEME
TIME_SYSTEM    = UTC
MEAN_ELEMENT_THEORY = SGP/SGP4

EPOCH          = 2026-03-22T19:44:55.159296
MEAN_MOTION    = 14.85653712
ECCENTRICITY   = .0017403
INCLINATION    = 82.5179
RA_OF_ASC_NODE = 114.3277
ARG_OF_PERICENTER = 290.4414
MEAN_ANOMALY   = 242.9202

EPHEMERIS_TYPE = 0
CLASSIFICATION_TYPE = U
NORAD_CAT_ID   = 16882
ELEMENT_SET_NO = 999
REV_AT_EPOCH   = 12131
BSTAR          = .44738542E-4
MEAN_MOTION_DOT = .412E-5
MEAN_MOTION_DDOT = 0

CCSDS_OMM_VERS = 2.0
CREATION_DATE  = 
ORIGINATOR     = 

OBJECT_NAME    = AJISAI (EGS)
OBJECT_ID      = 1986-061A
CENTER_NAME    = EARTH
REF_FRAME      = TEME
TIME_SYSTEM    = UTC
MEAN_ELEMENT_THEORY = SGP/SGP4

EPOCH          = 2026-03-22T23:02:24.178848
MEAN_MOTION    = 12.44515668
ECCENTRICITY   = .00113121
INCLINATION    = 50.0098
RA_OF_ASC_NODE = 52.5397
ARG_OF_PERICENTER = 321.2089
MEAN_ANOMALY   = 80.6249

EPHEMERIS_TYPE = 0
CLASSIFICATION_TYPE = U
NORAD_CAT_ID   = 16908
ELEMENT_SET_NO = 999
REV_AT_EPOCH   = 46965
BSTAR          = -.95127306E-4
MEAN_MOTION_DOT = -.111E-5
MEAN_MOTION_DDOT = 0

CCSDS_OMM_VERS = 2.0
CREATION_DATE  = 
ORIGINATOR     = 

OBJECT_NAME    = SL-14 R/B
OBJECT_ID      = 1987-024B
CENTER_NAME    = EARTH
REF_FRAME      = TEME
TIME_SYSTEM    = UTC
MEAN_ELEMENT_THEORY = SGP/SGP4

EPOCH          = 2026-03-22T11:58:13.754784
MEAN_MOTION    = 14.86143639
ECCENTRICITY   = .00172635
INCLINATION    = 82.5247
RA_OF_ASC_NODE = 80.7206
ARG_OF_PERICENTER = 214.2467
MEAN_ANOMALY   = 145.7638

EPHEMERIS_TYPE = 0
CLASSIFICATION_TYPE = U
NORAD_CAT_ID   = 17567
ELEMENT_SET_NO = 999
REV_AT_EPOCH   = 9003
BSTAR          = .48090784E-4
MEAN_MOTION_DOT = .447E-5
MEAN_MOTION_DDOT = 0

CCSDS_OMM_VERS = 2.0
CREATION_DATE  = 
ORIGINATOR     = 

OBJECT_NAME    = COSMOS 1833
OBJECT_ID      = 1987-027A
CENTER_NAME    = EARTH
REF_FRAME      = TEME
TIME_SYSTEM    = UTC
MEAN_ELEMENT_THEORY = SGP/SGP4

EPOCH          = 2026-03-22T22:57:11.204352
MEAN_MOTION    = 14.13050216
ECCENTRICITY   = .00235741
INCLINATION    = 70.9186
RA_OF_ASC_NODE = 298.1353
ARG_OF_PERICENTER = 195.2777
MEAN_ANOMALY   = 164.7635

EPHEMERIS_TYPE = 0
CLASSIFICATION_TYPE = U
NORAD_CAT_ID   = 17589
ELEMENT_SET_NO = 999
REV_AT_EPOCH   = 1219
BSTAR          = -.11705785E-3
MEAN_MOTION_DOT = -.267E-5
MEAN_MOTION_DDOT = 0

CCSDS_OMM_VERS = 2.0
CREATION_DATE  = 
ORIGINATOR     = 

OBJECT_NAME    = SL-16 R/B
OBJECT_ID      = 1987-027B
CENTER_NAME    = EARTH
REF_FRAME      = TEME
TIME_SYSTEM    = UTC
MEAN_ELEMENT_THEORY = SGP/SGP4

EPOCH          = 2026-03-22T19:42:13.536000
MEAN_MOTION    = 14.17166056
ECCENTRICITY   = .00029615
INCLINATION    = 70.9994
RA_OF_ASC_NODE = 248.8213
ARG_OF_PERICENTER = 111.5471
MEAN_ANOMALY   = 248.5969

EPHEMERIS_TYPE = 0
CLASSIFICATION_TYPE = U
NORAD_CAT_ID   = 17590
ELEMENT_SET_NO = 999
REV_AT_EPOCH   = 1720
BSTAR          = -.7672154E-4
MEAN_MOTION_DOT = -.203E-5
MEAN_MOTION_DDOT = 0

CCSDS_OMM_VERS = 2.0
CREATION_DATE  = 
ORIGINATOR     = 

OBJECT_NAME    = SL-14 R/B
OBJECT_ID      = 1987-038B
CENTER_NAME    = EARTH
REF_FRAME      = TEME
TIME_SYSTEM    = UTC
MEAN_ELEMENT_THEORY = SGP/SGP4

EPOCH          = 2026-03-22T13:37:28.471296
MEAN_MOTION    = 14.85380208
ECCENTRICITY   = .00205738
INCLINATION    = 82.4981
RA_OF_ASC_NODE = 284.6734
ARG_OF_PERICENTER = 119.8947
MEAN_ANOMALY   = 240.4316

EPHEMERIS_TYPE = 0
CLASSIFICATION_TYPE = U
NORAD_CAT_ID   = 17912
ELEMENT_SET_NO = 999
REV_AT_EPOCH   = 8114
BSTAR          = .49145529E-4
MEAN_MOTION_DOT = .449E-5
MEAN_MOTION_DDOT = 0

CCSDS_OMM_VERS = 2.0
CREATION_DATE  = 
ORIGINATOR     = 

OBJECT_NAME    = COSMOS 1844
OBJECT_ID      = 1987-041A
CENTER_NAME    = EARTH
REF_FRAME      = TEME
TIME_SYSTEM    = UTC
MEAN_ELEMENT_THEORY = SGP/SGP4

EPOCH          = 2026-03-22T20:03:52.704288
MEAN_MOTION    = 14.14552573
ECCENTRICITY   = .00306766
INCLINATION    = 70.9011
RA_OF_ASC_NODE = 6.4471
ARG_OF_PERICENTER = 358.7576
MEAN_ANOMALY   = 1.3464

EPHEMERIS_TYPE = 0
CLASSIFICATION_TYPE = U
NORAD_CAT_ID   = 17973
ELEMENT_SET_NO = 999
REV_AT_EPOCH   = 544
BSTAR          = .13700883E-3
MEAN_MOTION_DOT = .216E-5
MEAN_MOTION_DDOT = 0

CCSDS_OMM_VERS = 2.0
CREATION_DATE  = 
ORIGINATOR     = 

OBJECT_NAME    = SL-14 R/B
OBJECT_ID      = 1987-055B
CENTER_NAME    = EARTH
REF_FRAME      = TEME
TIME_SYSTEM    = UTC
MEAN_ELEMENT_THEORY = SGP/SGP4

EPOCH          = 2026-03-22T22:42:49.779072
MEAN_MOTION    = 14.85642673
ECCENTRICITY   = .00199591
INCLINATION    = 82.5018
RA_OF_ASC_NODE = 336.5400
ARG_OF_PERICENTER = 333.8312
MEAN_ANOMALY   = 26.1893

EPHEMERIS_TYPE = 0
CLASSIFICATION_TYPE = U
NORAD_CAT_ID   = 18153
ELEMENT_SET_NO = 999
REV_AT_EPOCH   = 7190
BSTAR          = .495194E-4
MEAN_MOTION_DOT = .454E-5
MEAN_MOTION_DDOT = 0

CCSDS_OMM_VERS = 2.0
CREATION_DATE  = 
ORIGINATOR     = 

OBJECT_NAME    = COSMOS 1867
OBJECT_ID      = 1987-060A
CENTER_NAME    = EARTH
REF_FRAME      = TEME
TIME_SYSTEM    = UTC
MEAN_ELEMENT_THEORY = SGP/SGP4

EPOCH          = 2026-03-22T22:11:20.325984
MEAN_MOTION    = 14.31504963
ECCENTRICITY   = .00146903
INCLINATION    = 65.0091
RA_OF_ASC_NODE = 269.6398
ARG_OF_PERICENTER = 279.4493
MEAN_ANOMALY   = 80.4931

EPHEMERIS_TYPE = 0
CLASSIFICATION_TYPE = U
NORAD_CAT_ID   = 18187
ELEMENT_SET_NO = 999
REV_AT_EPOCH   = 2183
BSTAR          = .25965151E-4
MEAN_MOTION_DOT = -.31E-6
MEAN_MOTION_DDOT = 0

CCSDS_OMM_VERS = 2.0
CREATION_DATE  = 
ORIGINATOR     = 

OBJECT_NAME    = SL-14 R/B
OBJECT_ID      = 1988-001B
CENTER_NAME    = EARTH
REF_FRAME      = TEME
TIME_SYSTEM    = UTC
MEAN_ELEMENT_THEORY = SGP/SGP4

EPOCH          = 2026-03-22T21:00:27.528768
MEAN_MOTION    = 14.85542187
ECCENTRICITY   = .00178076
INCLINATION    = 82.5163
RA_OF_ASC_NODE = 182.9623
ARG_OF_PERICENTER = 190.1058
MEAN_ANOMALY   = 169.9803

EPHEMERIS_TYPE = 0
CLASSIFICATION_TYPE = U
NORAD_CAT_ID   = 18749
ELEMENT_SET_NO = 999
REV_AT_EPOCH   = 4398
BSTAR          = .5776008E-4
MEAN_MOTION_DOT = .524E-5
MEAN_MOTION_DDOT = 0

CCSDS_OMM_VERS = 2.0
CREATION_DATE  = 
ORIGINATOR     = 

OBJECT_NAME    = COSMOS 1933
OBJECT_ID      = 1988-020A
CENTER_NAME    = EARTH
REF_FRAME      = TEME
TIME_SYSTEM    = UTC
MEAN_ELEMENT_THEORY = SGP/SGP4

EPOCH          = 2026-03-22T20:11:46.983264
MEAN_MOTION    = 15.18102185
ECCENTRICITY   = .00049521
INCLINATION    = 82.5117
RA_OF_ASC_NODE = 237.8956
ARG_OF_PERICENTER = 141.1355
MEAN_ANOMALY   = 219.0236

EPHEMERIS_TYPE = 0
CLASSIFICATION_TYPE = U
NORAD_CAT_ID   = 18958
ELEMENT_SET_NO = 999
REV_AT_EPOCH   = 5222
BSTAR          = .28357396E-3
MEAN_MOTION_DOT = .5812E-4
MEAN_MOTION_DDOT = 0

